TWILIGHT H              
1 67370U 26004H   26037.58232361  .00006733  00000+0  74870-3 0  9990
2 67370  97.7960  38.2867 0006248 203.4117 156.6816 14.87463223  3876
TWILIGHT J              
1 67371U 26004J   26037.57603377  .00007883  00000+0  86653-3 0  9998
2 67371  97.8002  38.3026 0005635 186.3100 173.8046 14.87883558  3876
ICEYE-X63               
1 67372U 26004K   26037.57157400  .00003523  00000+0  38986-3 0  9993
2 67372  97.7981  38.3034 0003913 179.9725 180.1493 14.87982569  3878
ICEYE-X64               
1 67373U 26004L   26037.57843958  .00002917  00000+0  32698-3 0  9994
2 67373  97.7994  38.2980 0005432 192.8866 167.2213 14.87584068  3878
AETHER-3                
1 67374U 26004M   26037.57260457  .00002638  00000+0  29375-3 0  9990
2 67374  97.7979  38.3008 0004195 180.7685 179.3526 14.87942467  3876
AETHER-4                
1 67375U 26004N   26037.57215826  .00002586  00000+0  28789-3 0  9991
2 67375  97.8016  38.3115 0004795 176.7001 183.4248 14.87963053  3873
AETHER-5                
1 67376U 26004P   26037.57476369  .00002606  00000+0  29117-3 0  9992
2 67376  97.8013  38.3069 0005111 183.1299 176.9886 14.87804025  3871
AETHER-6                
1 67377U 26004Q   26036.63062798 -.00251653  00000+0 -28936-1 0  9992
2 67377  97.8013  37.3851 0004629 129.8525 230.3099 14.87287400  3729
AETHER-7                
1 67378U 26004R   26037.57604498 -.00008522  00000+0 -93096-3 0  9992
2 67378  97.7986  38.2983 0004253 188.4475 171.6671 14.87699709  3869
AETHER-8                
1 67379U 26004S   26037.57584303  .00002600  00000+0  29098-3 0  9995
2 67379  97.7991  38.3006 0005005 188.4406 171.6727 14.87744380  3861
AETHER-9                
1 67380U 26004T   26037.57422680  .00002530  00000+0  28264-3 0  9992
2 67380  97.7983  38.3006 0004523 186.6728 173.4429 14.87844958  3866
AETHER-10               
1 67381U 26004U   26037.10137301 -.00238932  00000+0 -27452-1 0  9990
2 67381  97.8017  37.8505 0003166 142.3540 217.7899 14.87251054  3791
