CCSDS_OMM_VERS = 2.0
CREATION_DATE  = 
ORIGINATOR     = 

OBJECT_NAME    = TWILIGHT H
OBJECT_ID      = 2026-004H
CENTER_NAME    = EARTH
REF_FRAME      = TEME
TIME_SYSTEM    = UTC
MEAN_ELEMENT_THEORY = SGP/SGP4

EPOCH          = 2026-02-06T13:58:32.759904
MEAN_MOTION    = 14.87463223
ECCENTRICITY   = .0006248
INCLINATION    = 97.7960
RA_OF_ASC_NODE = 38.2867
ARG_OF_PERICENTER = 203.4117
MEAN_ANOMALY   = 156.6816

EPHEMERIS_TYPE = 0
CLASSIFICATION_TYPE = U
NORAD_CAT_ID   = 67370
ELEMENT_SET_NO = 999
REV_AT_EPOCH   = 387
BSTAR          = .74869658E-3
MEAN_MOTION_DOT = .6733E-4
MEAN_MOTION_DDOT = 0

CCSDS_OMM_VERS = 2.0
CREATION_DATE  = 
ORIGINATOR     = 

OBJECT_NAME    = TWILIGHT J
OBJECT_ID      = 2026-004J
CENTER_NAME    = EARTH
REF_FRAME      = TEME
TIME_SYSTEM    = UTC
MEAN_ELEMENT_THEORY = SGP/SGP4

EPOCH          = 2026-02-06T13:49:29.317728
MEAN_MOTION    = 14.87883558
ECCENTRICITY   = .00056351
INCLINATION    = 97.8002
RA_OF_ASC_NODE = 38.3026
ARG_OF_PERICENTER = 186.3100
MEAN_ANOMALY   = 173.8046

EPHEMERIS_TYPE = 0
CLASSIFICATION_TYPE = U
NORAD_CAT_ID   = 67371
ELEMENT_SET_NO = 999
REV_AT_EPOCH   = 387
BSTAR          = .86653008E-3
MEAN_MOTION_DOT = .7883E-4
MEAN_MOTION_DDOT = 0

CCSDS_OMM_VERS = 2.0
CREATION_DATE  = 
ORIGINATOR     = 

OBJECT_NAME    = ICEYE-X63
OBJECT_ID      = 2026-004K
CENTER_NAME    = EARTH
REF_FRAME      = TEME
TIME_SYSTEM    = UTC
MEAN_ELEMENT_THEORY = SGP/SGP4

EPOCH          = 2026-02-06T13:43:03.993600
MEAN_MOTION    = 14.87982569
ECCENTRICITY   = .00039134
INCLINATION    = 97.7981
RA_OF_ASC_NODE = 38.3034
ARG_OF_PERICENTER = 179.9725
MEAN_ANOMALY   = 180.1493

EPHEMERIS_TYPE = 0
CLASSIFICATION_TYPE = U
NORAD_CAT_ID   = 67372
ELEMENT_SET_NO = 999
REV_AT_EPOCH   = 387
BSTAR          = .38986221E-3
MEAN_MOTION_DOT = .3523E-4
MEAN_MOTION_DDOT = 0

CCSDS_OMM_VERS = 2.0
CREATION_DATE  = 
ORIGINATOR     = 

OBJECT_NAME    = ICEYE-X64
OBJECT_ID      = 2026-004L
CENTER_NAME    = EARTH
REF_FRAME      = TEME
TIME_SYSTEM    = UTC
MEAN_ELEMENT_THEORY = SGP/SGP4

EPOCH          = 2026-02-06T13:52:57.179712
MEAN_MOTION    = 14.87584068
ECCENTRICITY   = .00054329
INCLINATION    = 97.7994
RA_OF_ASC_NODE = 38.2980
ARG_OF_PERICENTER = 192.8866
MEAN_ANOMALY   = 167.2213

EPHEMERIS_TYPE = 0
CLASSIFICATION_TYPE = U
NORAD_CAT_ID   = 67373
ELEMENT_SET_NO = 999
REV_AT_EPOCH   = 387
BSTAR          = .32698409E-3
MEAN_MOTION_DOT = .2917E-4
MEAN_MOTION_DDOT = 0

CCSDS_OMM_VERS = 2.0
CREATION_DATE  = 
ORIGINATOR     = 

OBJECT_NAME    = AETHER-3
OBJECT_ID      = 2026-004M
CENTER_NAME    = EARTH
REF_FRAME      = TEME
TIME_SYSTEM    = UTC
MEAN_ELEMENT_THEORY = SGP/SGP4

EPOCH          = 2026-02-06T13:44:33.034848
MEAN_MOTION    = 14.87942467
ECCENTRICITY   = .00041952
INCLINATION    = 97.7979
RA_OF_ASC_NODE = 38.3008
ARG_OF_PERICENTER = 180.7685
MEAN_ANOMALY   = 179.3526

EPHEMERIS_TYPE = 0
CLASSIFICATION_TYPE = U
NORAD_CAT_ID   = 67374
ELEMENT_SET_NO = 999
REV_AT_EPOCH   = 387
BSTAR          = .29374613E-3
MEAN_MOTION_DOT = .2638E-4
MEAN_MOTION_DDOT = 0

CCSDS_OMM_VERS = 2.0
CREATION_DATE  = 
ORIGINATOR     = 

OBJECT_NAME    = AETHER-4
OBJECT_ID      = 2026-004N
CENTER_NAME    = EARTH
REF_FRAME      = TEME
TIME_SYSTEM    = UTC
MEAN_ELEMENT_THEORY = SGP/SGP4

EPOCH          = 2026-02-06T13:43:54.473664
MEAN_MOTION    = 14.87963053
ECCENTRICITY   = .00047953
INCLINATION    = 97.8016
RA_OF_ASC_NODE = 38.3115
ARG_OF_PERICENTER = 176.7001
MEAN_ANOMALY   = 183.4248

EPHEMERIS_TYPE = 0
CLASSIFICATION_TYPE = U
NORAD_CAT_ID   = 67375
ELEMENT_SET_NO = 999
REV_AT_EPOCH   = 387
BSTAR          = .28788668E-3
MEAN_MOTION_DOT = .2586E-4
MEAN_MOTION_DDOT = 0

CCSDS_OMM_VERS = 2.0
CREATION_DATE  = 
ORIGINATOR     = 

OBJECT_NAME    = AETHER-5
OBJECT_ID      = 2026-004P
CENTER_NAME    = EARTH
REF_FRAME      = TEME
TIME_SYSTEM    = UTC
MEAN_ELEMENT_THEORY = SGP/SGP4

EPOCH          = 2026-02-06T13:47:39.582816
MEAN_MOTION    = 14.87804025
ECCENTRICITY   = .00051113
INCLINATION    = 97.8013
RA_OF_ASC_NODE = 38.3069
ARG_OF_PERICENTER = 183.1299
MEAN_ANOMALY   = 176.9886

EPHEMERIS_TYPE = 0
CLASSIFICATION_TYPE = U
NORAD_CAT_ID   = 67376
ELEMENT_SET_NO = 999
REV_AT_EPOCH   = 387
BSTAR          = .29116714E-3
MEAN_MOTION_DOT = .2606E-4
MEAN_MOTION_DDOT = 0

CCSDS_OMM_VERS = 2.0
CREATION_DATE  = 
ORIGINATOR     = 

OBJECT_NAME    = AETHER-6
OBJECT_ID      = 2026-004Q
CENTER_NAME    = EARTH
REF_FRAME      = TEME
TIME_SYSTEM    = UTC
MEAN_ELEMENT_THEORY = SGP/SGP4

EPOCH          = 2026-02-05T15:08:06.257472
MEAN_MOTION    = 14.87287400
ECCENTRICITY   = .0004629
INCLINATION    = 97.8013
RA_OF_ASC_NODE = 37.3851
ARG_OF_PERICENTER = 129.8525
MEAN_ANOMALY   = 230.3099

EPHEMERIS_TYPE = 0
CLASSIFICATION_TYPE = U
NORAD_CAT_ID   = 67377
ELEMENT_SET_NO = 999
REV_AT_EPOCH   = 372
BSTAR          = -.28936E-1
MEAN_MOTION_DOT = -.251653E-2
MEAN_MOTION_DDOT = 0

CCSDS_OMM_VERS = 2.0
CREATION_DATE  = 
ORIGINATOR     = 

OBJECT_NAME    = AETHER-7
OBJECT_ID      = 2026-004R
CENTER_NAME    = EARTH
REF_FRAME      = TEME
TIME_SYSTEM    = UTC
MEAN_ELEMENT_THEORY = SGP/SGP4

EPOCH          = 2026-02-06T13:49:30.286272
MEAN_MOTION    = 14.87699709
ECCENTRICITY   = .00042535
INCLINATION    = 97.7986
RA_OF_ASC_NODE = 38.2983
ARG_OF_PERICENTER = 188.4475
MEAN_ANOMALY   = 171.6671

EPHEMERIS_TYPE = 0
CLASSIFICATION_TYPE = U
NORAD_CAT_ID   = 67378
ELEMENT_SET_NO = 999
REV_AT_EPOCH   = 386
BSTAR          = -.93096488E-3
MEAN_MOTION_DOT = -.8522E-4
MEAN_MOTION_DDOT = 0

CCSDS_OMM_VERS = 2.0
CREATION_DATE  = 
ORIGINATOR     = 

OBJECT_NAME    = AETHER-8
OBJECT_ID      = 2026-004S
CENTER_NAME    = EARTH
REF_FRAME      = TEME
TIME_SYSTEM    = UTC
MEAN_ELEMENT_THEORY = SGP/SGP4

EPOCH          = 2026-02-06T13:49:12.837792
MEAN_MOTION    = 14.87744380
ECCENTRICITY   = .00050053
INCLINATION    = 97.7991
RA_OF_ASC_NODE = 38.3006
ARG_OF_PERICENTER = 188.4406
MEAN_ANOMALY   = 171.6727

EPHEMERIS_TYPE = 0
CLASSIFICATION_TYPE = U
NORAD_CAT_ID   = 67379
ELEMENT_SET_NO = 999
REV_AT_EPOCH   = 386
BSTAR          = .29097569E-3
MEAN_MOTION_DOT = .26E-4
MEAN_MOTION_DDOT = 0

CCSDS_OMM_VERS = 2.0
CREATION_DATE  = 
ORIGINATOR     = 

OBJECT_NAME    = AETHER-9
OBJECT_ID      = 2026-004T
CENTER_NAME    = EARTH
REF_FRAME      = TEME
TIME_SYSTEM    = UTC
MEAN_ELEMENT_THEORY = SGP/SGP4

EPOCH          = 2026-02-06T13:46:53.195520
MEAN_MOTION    = 14.87844958
ECCENTRICITY   = .00045235
INCLINATION    = 97.7983
RA_OF_ASC_NODE = 38.3006
ARG_OF_PERICENTER = 186.6728
MEAN_ANOMALY   = 173.4429

EPHEMERIS_TYPE = 0
CLASSIFICATION_TYPE = U
NORAD_CAT_ID   = 67380
ELEMENT_SET_NO = 999
REV_AT_EPOCH   = 386
BSTAR          = .28264276E-3
MEAN_MOTION_DOT = .253E-4
MEAN_MOTION_DDOT = 0

CCSDS_OMM_VERS = 2.0
CREATION_DATE  = 
ORIGINATOR     = 

OBJECT_NAME    = AETHER-10
OBJECT_ID      = 2026-004U
CENTER_NAME    = EARTH
REF_FRAME      = TEME
TIME_SYSTEM    = UTC
MEAN_ELEMENT_THEORY = SGP/SGP4

EPOCH          = 2026-02-06T02:25:58.628064
MEAN_MOTION    = 14.87251054
ECCENTRICITY   = .00031664
INCLINATION    = 97.8017
RA_OF_ASC_NODE = 37.8505
ARG_OF_PERICENTER = 142.3540
MEAN_ANOMALY   = 217.7899

EPHEMERIS_TYPE = 0
CLASSIFICATION_TYPE = U
NORAD_CAT_ID   = 67381
ELEMENT_SET_NO = 999
REV_AT_EPOCH   = 379
BSTAR          = -.27452089E-1
MEAN_MOTION_DOT = -.238932E-2
MEAN_MOTION_DDOT = 0

